NORAD_CAT_ID,OBJECT_NAME,OBJECT_TYPE,EPOCH,MEAN_MOTION,ECCENTRICITY,INCLINATION,RA_OF_ASC_NODE,ARG_OF_PERICENTER,MEAN_ANOMALY,BSTAR,MEAN_MOTION_DOT,MEAN_MOTION_DDOT,TLE_LINE0,TLE_LINE1,TLE_LINE2,SEMIMAJOR_AXIS,PERIOD,APOGEE,PERIGEE,DECAYED
55933.0,STARLINK-5852,PAYLOAD,2024-04-08 19:36:22,14.98334945,0.0003079,69.9987,249.1787,270.6577,89.4229,0.00011606,1.292e-05,0.0,0 STARLINK-5852,1 55933U 23037V   24099.81692235  .00001292  00000-0  11606-3 0  9991,2 55933  69.9987 249.1787 0003079 270.6577  89.4229 14.98334945 59486,6950.178,96.107,574.183,569.903,0.0
55933.0,STARLINK-5852,PAYLOAD,2024-04-09 10:01:35,14.98326489,0.00031,70.0,247.6645,270.8758,89.2045,8.3369e-05,9.02e-06,0.0,0 STARLINK-5852,1 55933U 23037V   24100.41776848  .00000902  00000-0  83369-4 0  9996,2 55933  70.0000 247.6645 0003100 270.8758  89.2045 14.98326489 59577,6950.204,96.107,574.223,569.914,0.0
55933.0,STARLINK-5852,PAYLOAD,2024-04-09 16:26:07,14.98329425,0.0003003,70.005,246.9904,267.6226,92.4589,8.8845e-05,9.67e-06,0.0,0 STARLINK-5852,1 55933U 23037V   24100.68480702  .00000967  00000-0  88845-4 0  9991,2 55933  70.0050 246.9904 0003003 267.6226  92.4589 14.98329425 59277,6950.195,96.107,574.147,569.973,0.0
55933.0,STARLINK-5852,PAYLOAD,2024-04-10 10:03:36,14.98333674,0.0003063,70.0046,245.1393,270.042,90.0388,-4.043e-05,-5.75e-06,0.0,0 STARLINK-5852,1 55933U 23037V   24101.41916755 -.00000575  00000-0 -40430-4 0  9990,2 55933  70.0046 245.1393 0003063 270.0420  90.0388 14.98333674 59727,6950.182,96.107,574.175,569.918,0.0
55933.0,STARLINK-5852,PAYLOAD,2024-04-10 19:40:24,14.98331366,0.0002974,70.0026,244.1294,269.8089,90.2729,-1.1631e-05,-2.32e-06,0.0,0 STARLINK-5852,1 55933U 23037V   24101.81972740 -.00000232  00000-0 -11631-4 0  9991,2 55933  70.0026 244.1294 0002974 269.8089  90.2729 14.98331366 59447,6950.189,96.107,574.121,569.987,0.0
55933.0,STARLINK-5852,PAYLOAD,2024-04-11 13:17:52,14.98333967,0.0003095,70.0003,242.2778,268.535,91.5455,6.608e-05,6.96e-06,0.0,0 STARLINK-5852,1 55933U 23037V   24102.55408217  .00000696  00000-0  66080-4 0  9996,2 55933  70.0003 242.2778 0003095 268.5350  91.5455 14.98333967 59898,6950.181,96.107,574.197,569.895,0.0
55933.0,STARLINK-5852,PAYLOAD,2024-04-11 19:42:24,14.98338237,0.0002964,70.0007,241.6054,266.7226,93.3594,8.7277e-05,9.49e-06,0.0,0 STARLINK-5852,1 55933U 23037V   24102.82111785  .00000949  00000-0  87277-4 0  9999,2 55933  70.0007 241.6054 0002964 266.7226  93.3594 14.98338237 59594,6950.167,96.106,574.092,569.972,0.0
55933.0,STARLINK-5852,PAYLOAD,2024-04-12 13:19:54,14.98327595,0.0002847,70.0011,239.754,268.7783,91.3049,8.1947e-06,5e-08,0.0,0 STARLINK-5852,1 55933U 23037V   24103.55548649  .00000005  00000-0  81947-5 0  9995,2 55933  70.0011 239.7540 0002847 268.7783  91.3049 14.98327595 60047,6950.2,96.107,574.044,570.087,0.0
55933.0,STARLINK-5852,PAYLOAD,2024-04-12 14:56:02,14.98327752,0.000284,70.0011,239.5857,268.6819,91.4015,9.9123e-06,2.5e-07,0.0,0 STARLINK-5852,1 55933U 23037V   24103.62224641  .00000025  00000-0  99123-5 0  9993,2 55933  70.0011 239.5857 0002840 268.6819  91.4015 14.98327752 59719,6950.2,96.107,574.039,570.091,0.0
55933.0,STARLINK-5852,PAYLOAD,2024-04-13 13:21:55,14.98327591,0.0002617,70.0016,237.2295,261.0542,99.0321,-5.752e-05,-7.79e-06,0.0,0 STARLINK-5852,1 55933U 23037V   24104.55688875 -.00000779  00000-0 -57520-4 0  9991,2 55933  70.0016 237.2295 0002617 261.0542  99.0321 14.98327591 60196,6950.2,96.107,573.884,570.246,0.0
55933.0,STARLINK-5852,PAYLOAD,2024-04-13 18:10:19,14.98328078,0.0002611,70.0016,236.7246,261.1534,98.933,-4.9024e-05,-6.78e-06,0.0,0 STARLINK-5852,1 55933U 23037V   24104.75716846 -.00000678  00000-0 -49024-4 0  9991,2 55933  70.0016 236.7246 0002611 261.1534  98.9330 14.98328078 59885,6950.199,96.107,573.879,570.249,0.0
55933.0,STARLINK-5852,PAYLOAD,2024-04-14 18:12:20,14.98328213,0.0002638,70.0018,234.2002,258.5918,101.4945,8.5965e-05,9.33e-06,0.0,0 STARLINK-5852,1 55933U 23037V   24105.75856714  .00000933  00000-0  85965-4 0  9997,2 55933  70.0018 234.2002 0002638 258.5918 101.4945 14.98328213 60374,6950.198,96.107,573.897,570.23,0.0
55933.0,STARLINK-5852,PAYLOAD,2024-04-15 13:25:56,14.98336821,0.0002762,70.0015,232.1804,262.7909,97.2936,0.00015572,1.766e-05,0.0,0 STARLINK-5852,1 55933U 23037V   24106.55967924  .00001766  00000-0  15572-3 0  9993,2 55933  70.0015 232.1804 0002762 262.7909  97.2936 14.98336821 60492,6950.172,96.107,573.956,570.117,0.0
55933.0,STARLINK-5852,PAYLOAD,2024-04-16 11:51:49,14.98330717,0.0002472,70.0013,229.8221,261.5527,98.5351,0.00010864,1.204e-05,0.0,0 STARLINK-5852,1 55933U 23037V   24107.49432370  .00001204  00000-0  10864-3 0  9995,2 55933  70.0013 229.8221 0002472 261.5527  98.5351 14.98330717 60636,6950.191,96.107,573.774,570.338,0.0
55933.0,STARLINK-5852,PAYLOAD,2024-04-16 15:04:05,14.98341134,0.0002843,70.0005,229.4858,266.749,93.3344,0.00011419,1.27e-05,0.0,0 STARLINK-5852,1 55933U 23037V   24107.62783598  .00001270  00000-0  11419-3 0  9991,2 55933  70.0005 229.4858 0002843 266.7490  93.3344 14.98341134 60312,6950.158,96.106,573.999,570.048,0.0
55933.0,STARLINK-5852,PAYLOAD,2024-04-16 18:16:21,14.983397,0.0002541,70.0017,229.1513,257.9929,102.0946,0.00016746,1.906e-05,0.0,0 STARLINK-5852,1 55933U 23037V   24107.76135503  .00001906  00000-0  16746-3 0  9997,2 55933  70.0017 229.1513 0002541 257.9929 102.0946 14.98339700 60675,6950.163,96.106,573.794,570.262,0.0
55933.0,STARLINK-5852,PAYLOAD,2024-04-17 11:53:50,14.98331327,0.0002728,70.0013,227.2969,265.6623,94.4224,-4.8132e-05,-6.67e-06,0.0,0 STARLINK-5852,1 55933U 23037V   24108.49572243 -.00000667  00000-0 -48132-4 0  9994,2 55933  70.0013 227.2969 0002728 265.6623  94.4224 14.98331327 60781,6950.189,96.107,573.95,570.158,0.0
55933.0,STARLINK-5852,PAYLOAD,2024-04-17 16:42:14,14.98339163,0.0002824,70.0007,226.7934,265.0949,94.9888,-2.5718e-05,-4e-06,0.0,0 STARLINK-5852,1 55933U 23037V   24108.69599581 -.00000400  00000-0 -25718-4 0  9990,2 55933  70.0007 226.7934 0002824 265.0949  94.9888 14.98339163 60813,6950.165,96.106,573.992,570.067,0.0
55933.0,STARLINK-5852,PAYLOAD,2024-04-18 11:55:51,14.98326334,0.0002439,70.0011,224.7721,259.4921,100.5963,-1.6251e-05,-2.87e-06,0.0,0 STARLINK-5852,1 55933U 23037V   24109.49712437 -.00000287  00000-0 -16251-4 0  9991,2 55933  70.0011 224.7721 0002439 259.4921 100.5963 14.98326334 60936,6950.204,96.107,573.764,570.374,0.0
55933.0,STARLINK-5852,PAYLOAD,2024-04-18 16:44:15,14.9832403,0.0002187,70.0027,224.2701,254.9496,105.1421,7.4807e-06,-4e-08,0.0,0 STARLINK-5852,1 55933U 23037V   24109.69740628 -.00000004  00000-0  74807-5 0  9994,2 55933  70.0027 224.2701 0002187 254.9496 105.1421 14.98324030 60620,6950.211,96.107,573.596,570.556,0.0
55933.0,STARLINK-5852,PAYLOAD,2024-04-19 13:34:00,14.98319325,0.0002523,70.0019,222.0827,251.9469,108.1415,0.00028072,3.257e-05,0.0,0 STARLINK-5852,1 55933U 23037V   24110.56528264  .00003257  00000-0  28072-3 0  9995,2 55933  70.0019 222.0827 0002523 251.9469 108.1415 14.98319325 61096,6950.226,96.108,573.844,570.337,0.0
55933.0,STARLINK-5852,PAYLOAD,2024-04-19 16:46:15,14.98334558,0.0002527,70.0022,221.7458,255.3417,104.7462,0.0001947,2.231e-05,0.0,0 STARLINK-5852,1 55933U 23037V   24110.69879489  .00002231  00000-0  19470-3 0  9990,2 55933  70.0022 221.7458 0002527 255.3417 104.7462 14.98334558 61113,6950.179,96.107,573.8,570.287,0.0
55933.0,STARLINK-5852,PAYLOAD,2024-04-20 11:59:54,14.98305724,0.0003242,70.0013,219.726,271.5622,88.5166,-0.00020293,-2.512e-05,0.0,0 STARLINK-5852,1 55933U 23037V   24111.49993921 -.00002512  00000-0 -20293-3 0  9996,2 55933  70.0013 219.7260 0003242 271.5622  88.5166 14.98305724 61230,6950.268,96.109,574.386,569.88,0.0
55933.0,STARLINK-5852,PAYLOAD,2024-04-20 13:36:02,14.9830558,0.000284,70.0017,219.558,261.0451,99.0386,-0.00020371,-2.521e-05,0.0,0 STARLINK-5852,1 55933U 23037V   24111.56669972 -.00002521  00000-0 -20371-3 0  9997,2 55933  70.0017 219.5580 0002840 261.0451  99.0386 14.98305580 60908,6950.268,96.109,574.107,570.16,0.0
55933.0,STARLINK-5852,PAYLOAD,2024-04-20 16:48:18,14.98310313,0.0003116,70.0006,219.2193,268.7419,91.3383,-0.00015033,-1.885e-05,0.0,0 STARLINK-5852,1 55933U 23037V   24111.70021701 -.00001885  00000-0 -15033-3 0  9996,2 55933  70.0006 219.2193 0003116 268.7419  91.3383 14.98310313 61260,6950.254,96.108,574.284,569.953,0.0
55933.0,STARLINK-5852,PAYLOAD,2024-04-21 13:38:03,14.98321745,0.000257,70.003,217.0333,266.3641,93.7224,-1.2703e-05,-2.44e-06,0.0,0 STARLINK-5852,1 55933U 23037V   24112.56809580 -.00000244  00000-0 -12703-4 0  9990,2 55933  70.0030 217.0333 0002570 266.3641  93.7224 14.98321745 61051,6950.218,96.108,573.87,570.297,0.0
55933.0,STARLINK-5852,PAYLOAD,2024-04-21 16:50:18,14.98330398,0.0002533,70.0022,216.6966,244.6754,115.4143,5.7321e-05,5.91e-06,0.0,0 STARLINK-5852,1 55933U 23037V   24112.70160730  .00000591  00000-0  57321-4 0  9991,2 55933  70.0022 216.6966 0002533 244.6754 115.4143 14.98330398 61418,6950.192,96.107,573.817,570.296,0.0
55933.0,STARLINK-5852,PAYLOAD,2024-04-22 10:27:48,14.98311097,0.0002562,70.0032,214.8457,258.6947,101.3924,0.00032543,3.79e-05,0.0,0 STARLINK-5852,1 55933U 23037V   24113.43597236  .00003790  00000-0  32543-3 0  9999,2 55933  70.0032 214.8457 0002562 258.6947 101.3924 14.98311097 61523,6950.251,96.108,573.897,570.336,0.0
55933.0,STARLINK-5852,PAYLOAD,2024-04-22 16:52:19,14.98317149,0.0002626,70.0021,214.1704,259.9139,100.1723,0.0004271,5.005e-05,0.0,0 STARLINK-5852,1 55933U 23037V   24113.70300876  .00005005  00000-0  42710-3 0  9999,2 55933  70.0021 214.1704 0002626 259.9139 100.1723 14.98317149 61569,6950.233,96.108,573.923,570.273,0.0
55933.0,STARLINK-5852,PAYLOAD,2024-04-23 05:41:24,14.98333665,0.0002534,70.0021,212.8236,260.2134,99.8739,0.00017324,1.975e-05,0.0,0 STARLINK-5852,1 55933U 23037V   24114.23708615  .00001975  00000-0  17324-3 0  9996,2 55933  70.0021 212.8236 0002534 260.2134  99.8739 14.98333665 61643,6950.182,96.107,573.808,570.285,0.0
